STARLINK-35507          
1 66327U 25253J   25336.24412463  .00129109  00000+0  21550-2 0  9992
2 66327  42.9999  46.1060 0002596 253.7936 106.2639 15.50777938  5309
STARLINK-35460          
1 66328U 25253K   25335.59689311  .00099230  00000+0  16743-2 0  9997
2 66328  43.0003  49.8457 0001826 291.6400  68.4265 15.50606087  5209
STARLINK-35505          
1 66329U 25253L   25336.24447101  .00149376  00000+0  25402-2 0  9999
2 66329  43.0001  46.1098 0002150 329.5242  30.5492 15.50171072  5309
STARLINK-35512          
1 66330U 25253M   25336.83336806 -.00114619  00000+0 -27709-2 0  9991
2 66330  43.0006  42.8096 0001806 283.2918  68.2017 15.40774802  5333
STARLINK-35257          
1 66331U 25253N   25336.24001134  .00085511  00000+0  14445-2 0  9999
2 66331  42.9998  46.0726 0001229 269.4284  90.6435 15.50637590  5302
STARLINK-35322          
1 66332U 25253P   25336.24171574  .00090339  00000+0  15230-2 0  9993
2 66332  43.0002  46.0856 0000986 282.8379  77.2371 15.50671276  5307
STARLINK-35400          
1 66333U 25253Q   25336.24035488  .00089367  00000+0  15089-2 0  9998
2 66333  43.0007  46.0732 0001606 261.2180  98.8498 15.50632789  5302
STARLINK-35407          
1 66334U 25253R   25336.24160538  .00156096  00000+0  26112-2 0  9997
2 66334  43.0002  46.0853 0001820 277.7851  82.2803 15.50606846  5309
STARLINK-35417          
1 66335U 25253S   25336.83336806  .00018653  00000+0  45327-3 0  9992
2 66335  43.0009  42.8974 0001390 277.3229  36.9782 15.40662438  5335
STARLINK-35404          
1 66336U 25253T   25336.23966713  .00130295  00000+0  21834-2 0  9996
2 66336  42.9999  46.0686 0001575 253.9948 106.0739 15.50663874  5305
STARLINK-34783          
1 66337U 25253U   25336.83336806  .00019948  00000+0  48404-3 0  9991
2 66337  43.0008  42.8371 0001403 276.3732  62.7805 15.40669200  5382
STARLINK-35477          
1 66338U 25253V   25336.83336806  .00022404  00000+0  54268-3 0  9998
2 66338  43.0007  42.9291 0000985 255.2676  46.5646 15.40663486  5430
